STARLINK-32935          
1 63202U 25048V   26068.39645887  .00030762  00000+0  11227-2 0  9996
2 63202  43.0001  87.2906 0001437 266.9278  93.1409 15.27579244 57048
KUIPER-00209            
1 67776U 26030N   26068.61786546  .00035298  00000+0  11963-2 0  9997
2 67776  51.8838 220.0775 0012191  59.1967 301.0215 15.30161950  5077
